{"type": "FeatureCollection", "features": [ {"type": "Feature", "properties": {"norad_id": 17070, "name": "POLAR BEAR", "group": "nnss", "lat": 59.35782798571858, "lon": -175.2445405465342, "alt_km": 972.0612516261954, "timestamp": "2025-12-04T07:39:36.404991+00:00", "meta": {"OBJECT_NAME": "POLAR BEAR", "OBJECT_ID": "1986-088A", "EPOCH": "2025-12-03T14:10:11.075808", "MEAN_MOTION": 13.75247908, "ECCENTRICITY": 0.00403097, "INCLINATION": 89.618, "RA_OF_ASC_NODE": 184.1395, "ARG_OF_PERICENTER": 145.9018, "MEAN_ANOMALY": 268.1317, "EPHEMERIS_TYPE": 0, "CLASSIFICATION_TYPE": "U", "NORAD_CAT_ID": 17070, "ELEMENT_SET_NO": 999, "REV_AT_EPOCH": 95853, "BSTAR": 0.00015194048, "MEAN_MOTION_DOT": 1.58e-06, "MEAN_MOTION_DDOT": 0}, "tle": {"line1": "1 17070U 86088A   25337.59040597  .00000158  00000+0  15194-3 0  9990", "line2": "2 17070  89.6180 184.1395 0040309 145.9018 268.1317 13.75247908958538"}}, "geometry": {"type": "Point", "coordinates": [-175.2445405465342, 59.35782798571858]}}, {"type": "Feature", "properties": {"norad_id": 18361, "name": "OSCAR 27", "group": "nnss", "lat": 25.184159179634634, "lon": -100.86672897968803, "alt_km": 1094.2625535036595, "timestamp": "2025-12-04T07:39:36.405000+00:00", "meta": {"OBJECT_NAME": "OSCAR 27", "OBJECT_ID": "1987-080A", "EPOCH": "2025-12-03T20:10:06.962304", "MEAN_MOTION": 13.44903756, "ECCENTRICITY": 0.01023919, "INCLINATION": 90.3742, "RA_OF_ASC_NODE": 78.9393, "ARG_OF_PERICENTER": 249.6442, "MEAN_ANOMALY": 109.3683, "EPHEMERIS_TYPE": 0, "CLASSIFICATION_TYPE": "U", "NORAD_CAT_ID": 18361, "ELEMENT_SET_NO": 999, "REV_AT_EPOCH": 87437, "BSTAR": 0.00023784443, "MEAN_MOTION_DOT": 1.51e-06, "MEAN_MOTION_DDOT": 0}, "tle": {"line1": "1 18361U 87080A   25337.84035836  .00000151  00000+0  23784-3 0  9992", "line2": "2 18361  90.3742  78.9393 0102391 249.6442 109.3683 13.44903756874373"}}, "geometry": {"type": "Point", "coordinates": [-100.86672897968803, 25.184159179634634]}}, {"type": "Feature", "properties": {"norad_id": 18362, "name": "OSCAR 29", "group": "nnss", "lat": -0.8778360581359, "lon": -100.59026060358828, "alt_km": 1096.283127990875, "timestamp": "2025-12-04T07:39:36.405010+00:00", "meta": {"OBJECT_NAME": "OSCAR 29", "OBJECT_ID": "1987-080B", "EPOCH": "2025-12-03T20:39:17.885088", "MEAN_MOTION": 13.44445825, "ECCENTRICITY": 0.01037001, "INCLINATION": 90.3756, "RA_OF_ASC_NODE": 79.3983, "ARG_OF_PERICENTER": 273.0095, "MEAN_ANOMALY": 210.8813, "EPHEMERIS_TYPE": 0, "CLASSIFICATION_TYPE": "U", "NORAD_CAT_ID": 18362, "ELEMENT_SET_NO": 999, "REV_AT_EPOCH": 87390, "BSTAR": 0.00020369086, "MEAN_MOTION_DOT": 1.3e-06, "MEAN_MOTION_DDOT": 0}, "tle": {"line1": "1 18362U 87080B   25337.86062367  .00000130  00000+0  20369-3 0  9997", "line2": "2 18362  90.3756  79.3983 0103700 273.0095 210.8813 13.44445825873908"}}, "geometry": {"type": "Point", "coordinates": [-100.59026060358828, -0.8778360581359]}}, {"type": "Feature", "properties": {"norad_id": 19070, "name": "OSCAR 23", "group": "nnss", "lat": 80.38674901209191, "lon": -161.96408937294618, "alt_km": 1179.1843835963173, "timestamp": "2025-12-04T07:39:36.405019+00:00", "meta": {"OBJECT_NAME": "OSCAR 23", "OBJECT_ID": "1988-033A", "EPOCH": "2025-12-03T15:30:12.247776", "MEAN_MOTION": 13.27784975, "ECCENTRICITY": 0.01887734, "INCLINATION": 90.3223, "RA_OF_ASC_NODE": 16.1105, "ARG_OF_PERICENTER": 205.2478, "MEAN_ANOMALY": 280.4281, "EPHEMERIS_TYPE": 0, "CLASSIFICATION_TYPE": "U", "NORAD_CAT_ID": 19070, "ELEMENT_SET_NO": 999, "REV_AT_EPOCH": 82132, "BSTAR": 0.00021239361, "MEAN_MOTION_DOT": 1.13e-06, "MEAN_MOTION_DDOT": 0}, "tle": {"line1": "1 19070U 88033A   25337.64597509  .00000113  00000+0  21239-3 0  9998", "line2": "2 19070  90.3223  16.1105 0188773 205.2478 280.4281 13.27784975821328"}}, "geometry": {"type": "Point", "coordinates": [-161.96408937294618, 80.38674901209191]}}, {"type": "Feature", "properties": {"norad_id": 19071, "name": "OSCAR 32", "group": "nnss", "lat": -27.6987012967363, "lon": -163.90663708490862, "alt_km": 1025.145704952297, "timestamp": "2025-12-04T07:39:36.405028+00:00", "meta": {"OBJECT_NAME": "OSCAR 32", "OBJECT_ID": "1988-033B", "EPOCH": "2025-12-03T20:38:44.805120", "MEAN_MOTION": 13.27952256, "ECCENTRICITY": 0.01876074, "INCLINATION": 90.3227, "RA_OF_ASC_NODE": 16.2485, "ARG_OF_PERICENTER": 191.485, "MEAN_ANOMALY": 342.7749, "EPHEMERIS_TYPE": 0, "CLASSIFICATION_TYPE": "U", "NORAD_CAT_ID": 19071, "ELEMENT_SET_NO": 999, "REV_AT_EPOCH": 82147, "BSTAR": 0.0002267063, "MEAN_MOTION_DOT": 1.21e-06, "MEAN_MOTION_DDOT": 0}, "tle": {"line1": "1 19071U 88033B   25337.86024080  .00000121  00000+0  22671-3 0  9992", "line2": "2 19071  90.3227  16.2485 0187607 191.4850 342.7749 13.27952256821476"}}, "geometry": {"type": "Point", "coordinates": [-163.90663708490862, -27.6987012967363]}}, {"type": "Feature", "properties": {"norad_id": 19223, "name": "NOVA 2", "group": "nnss", "lat": -16.340088838250185, "lon": -101.71344822074252, "alt_km": 1200.0176984699929, "timestamp": "2025-12-04T07:39:36.405038+00:00", "meta": {"OBJECT_NAME": "NOVA 2", "OBJECT_ID": "1988-052A", "EPOCH": "2025-12-03T20:22:59.673792", "MEAN_MOTION": 13.22934277, "ECCENTRICITY": 0.00312959, "INCLINATION": 89.9873, "RA_OF_ASC_NODE": 78.2834, "ARG_OF_PERICENTER": 40.8343, "MEAN_ANOMALY": 78.7636, "EPHEMERIS_TYPE": 0, "CLASSIFICATION_TYPE": "U", "NORAD_CAT_ID": 19223, "ELEMENT_SET_NO": 999, "REV_AT_EPOCH": 80830, "BSTAR": 0.00015420407, "MEAN_MOTION_DOT": 7.4e-07, "MEAN_MOTION_DDOT": 0}, "tle": {"line1": "1 19223U 88052A   25337.84930178  .00000074  00000+0  15420-3 0  9995", "line2": "2 19223  89.9873  78.2834 0031295  40.8343  78.7636 13.22934277808303"}}, "geometry": {"type": "Point", "coordinates": [-101.71344822074252, -16.340088838250185]}}, {"type": "Feature", "properties": {"norad_id": 19419, "name": "OSCAR 25", "group": "nnss", "lat": 37.086221638812376, "lon": 20.1894275574398, "alt_km": 1138.7179280710488, "timestamp": "2025-12-04T07:39:36.405047+00:00", "meta": {"OBJECT_NAME": "OSCAR 25", "OBJECT_ID": "1988-074A", "EPOCH": "2025-12-03T21:37:06.019104", "MEAN_MOTION": 13.42620786, "ECCENTRICITY": 0.00942227, "INCLINATION": 90.0355, "RA_OF_ASC_NODE": 20.2148, "ARG_OF_PERICENTER": 271.5269, "MEAN_ANOMALY": 263.6273, "EPHEMERIS_TYPE": 0, "CLASSIFICATION_TYPE": "U", "NORAD_CAT_ID": 19419, "ELEMENT_SET_NO": 999, "REV_AT_EPOCH": 82521, "BSTAR": 0.00028429919, "MEAN_MOTION_DOT": 1.73e-06, "MEAN_MOTION_DDOT": 0}, "tle": {"line1": "1 19419U 88074A   25337.90076411  .00000173  00000+0  28430-3 0  9999", "line2": "2 19419  90.0355  20.2148 0094222 271.5269 263.6273 13.42620786825212"}}, "geometry": {"type": "Point", "coordinates": [20.1894275574398, 37.086221638812376]}}, {"type": "Feature", "properties": {"norad_id": 19420, "name": "OSCAR 31", "group": "nnss", "lat": -78.47371874174009, "lon": 20.746890021265084, "alt_km": 1040.98063300574, "timestamp": "2025-12-04T07:39:36.405057+00:00", "meta": {"OBJECT_NAME": "OSCAR 31", "OBJECT_ID": "1988-074B", "EPOCH": "2025-12-03T22:11:24.847296", "MEAN_MOTION": 13.42582468, "ECCENTRICITY": 0.00924611, "INCLINATION": 90.0371, "RA_OF_ASC_NODE": 20.5634, "ARG_OF_PERICENTER": 265.5657, "MEAN_ANOMALY": 269.6885, "EPHEMERIS_TYPE": 0, "CLASSIFICATION_TYPE": "U", "NORAD_CAT_ID": 19420, "ELEMENT_SET_NO": 999, "REV_AT_EPOCH": 82532, "BSTAR": 0.00025181595, "MEAN_MOTION_DOT": 1.54e-06, "MEAN_MOTION_DDOT": 0}, "tle": {"line1": "1 19420U 88074B   25337.92459314  .00000154  00000+0  25182-3 0  9990", "line2": "2 19420  90.0371  20.5634 0092461 265.5657 269.6885 13.42582468825323"}}, "geometry": {"type": "Point", "coordinates": [20.746890021265084, -78.47371874174009]}}]}